{
  "type": "FeatureCollection",
  "features": [
    {
      "type": "Feature",
      "properties": {
        "norad_id": 66989,
        "name": "CZ-4B R/B",
        "group": "last-30-days",
        "lat": -68.82604996805563,
        "lon": 85.13971446474827,
        "alt_km": 281.26163409982837,
        "timestamp": "2025-12-24T22:42:20.748094+00:00",
        "meta_object_name": "CZ-4B R/B",
        "meta_object_id": "2025-289B",
        "meta_epoch": "2025-12-24T04:38:29.685696",
        "meta_mean_motion": 15.69990743,
        "meta_eccentricity": 0.01403574,
        "meta_inclination": 97.5233,
        "meta_ra_of_asc_node": 64.3803,
        "meta_arg_of_pericenter": 319.5361,
        "meta_mean_anomaly": 39.5527,
        "meta_ephemeris_type": 0,
        "meta_classification_type": "U",
        "meta_norad_cat_id": 66989,
        "meta_element_set_no": 999,
        "meta_rev_at_epoch": 236,
        "meta_bstar": 0.00059877785,
        "meta_mean_motion_dot": 0.00128184,
        "meta_mean_motion_ddot": 7.033709e-06,
        "tle_line1": "1 66989U 25289B   25358.19339914  .00128184  70337-5  59878-3 0  9995",
        "tle_line2": "2 66989  97.5233  64.3803 0140357 319.5361  39.5527 15.69990743  2366"
      },
      "geometry": {
        "type": "Point",
        "coordinates": [
          85.13971446474827,
          -68.82604996805563
        ]
      }
    },
    {
      "type": "Feature",
      "properties": {
        "norad_id": 66990,
        "name": "TJS-22",
        "group": "last-30-days",
        "lat": -1.1267892926973058,
        "lon": 140.6935816411302,
        "alt_km": 35795.08166368068,
        "timestamp": "2025-12-24T22:42:20.748106+00:00",
        "meta_object_name": "TJS-22",
        "meta_object_id": "2025-290A",
        "meta_epoch": "2025-12-23T08:28:30.051840",
        "meta_mean_motion": 1.00271239,
        "meta_eccentricity": 0.00034178,
        "meta_inclination": 1.9617,
        "meta_ra_of_asc_node": 285.0353,
        "meta_arg_of_pericenter": 342.904,
        "meta_mean_anomaly": 17.7811,
        "meta_ephemeris_type": 0,
        "meta_classification_type": "U",
        "meta_norad_cat_id": 66990,
        "meta_element_set_no": 999,
        "meta_rev_at_epoch": 26,
        "meta_bstar": 0,
        "meta_mean_motion_dot": 1.6e-07,
        "meta_mean_motion_ddot": 0,
        "tle_line1": "1 66990U 25290A   25357.35312560  .00000016  00000+0  00000+0 0  9990",
        "tle_line2": "2 66990   1.9617 285.0353 0003417 342.9040  17.7811  1.00271239   267"
      },
      "geometry": {
        "type": "Point",
        "coordinates": [
          140.6935816411302,
          -1.1267892926973058
        ]
      }
    },
    {
      "type": "Feature",
      "properties": {
        "norad_id": 66991,
        "name": "CZ-3B R/B",
        "group": "last-30-days",
        "lat": 4.084752462680216,
        "lon": -55.60973017452549,
        "alt_km": 34294.33588234209,
        "timestamp": "2025-12-24T22:42:20.748118+00:00",
        "meta_object_name": "CZ-3B R/B",
        "meta_object_id": "2025-290B",
        "meta_epoch": "2025-12-15T17:23:33.043200",
        "meta_mean_motion": 2.38388611,
        "meta_eccentricity": 0.7240884,
        "meta_inclination": 28.4636,
        "meta_ra_of_asc_node": 300.4666,
        "meta_arg_of_pericenter": 182.7002,
        "meta_mean_anomaly": 168.625,
        "meta_ephemeris_type": 0,
        "meta_classification_type": "U",
        "meta_norad_cat_id": 66991,
        "meta_element_set_no": 999,
        "meta_rev_at_epoch": 16,
        "meta_bstar": 0.00075879,
        "meta_mean_motion_dot": 0.00057911,
        "meta_mean_motion_ddot": -2.0514e-07,
        "tle_line1": "1 66991U 25290B   25349.72468800  .00057911 -20514-6  75879-3 0  9998",
        "tle_line2": "2 66991  28.4636 300.4666 7240884 182.7002 168.6250  2.38388611   165"
      },
      "geometry": {
        "type": "Point",
        "coordinates": [
          -55.60973017452549,
          4.084752462680216
        ]
      }
    },
    {
      "type": "Feature",
      "properties": {
        "norad_id": 66993,
        "name": "2025-292A",
        "group": "last-30-days",
        "lat": -8.469698424218226,
        "lon": -109.7687905851273,
        "alt_km": 549.1699597584957,
        "timestamp": "2025-12-24T22:42:20.748130+00:00",
        "meta_object_name": "2025-292A",
        "meta_object_id": "2025-292A",
        "meta_epoch": "2025-12-24T05:54:30.858336",
        "meta_mean_motion": 15.04577781,
        "meta_eccentricity": 0.00144786,
        "meta_inclination": 97.65,
        "meta_ra_of_asc_node": 70.6852,
        "meta_arg_of_pericenter": 230.6712,
        "meta_mean_anomaly": 129.3232,
        "meta_ephemeris_type": 0,
        "meta_classification_type": "U",
        "meta_norad_cat_id": 66993,
        "meta_element_set_no": 999,
        "meta_rev_at_epoch": 212,
        "meta_bstar": 0.0003177332,
        "meta_mean_motion_dot": 4.406e-05,
        "meta_mean_motion_ddot": 0,
        "tle_line1": "1 66993U 25292A   25358.24619049  .00004406  00000+0  31773-3 0  9998",
        "tle_line2": "2 66993  97.6500  70.6852 0014478 230.6712 129.3232 15.04577781  2127"
      },
      "geometry": {
        "type": "Point",
        "coordinates": [
          -109.7687905851273,
          -8.469698424218226
        ]
      }
    },
    {
      "type": "Feature",
      "properties": {
        "norad_id": 66994,
        "name": "2025-292B",
        "group": "last-30-days",
        "lat": -10.825192237369858,
        "lon": -110.09240604594838,
        "alt_km": 549.1761652193181,
        "timestamp": "2025-12-24T22:42:20.748140+00:00",
        "meta_object_name": "2025-292B",
        "meta_object_id": "2025-292B",
        "meta_epoch": "2025-12-24T05:53:54.966048",
        "meta_mean_motion": 15.04625525,
        "meta_eccentricity": 0.00142571,
        "meta_inclination": 97.6509,
        "meta_ra_of_asc_node": 70.6871,
        "meta_arg_of_pericenter": 230.9883,
        "meta_mean_anomaly": 129.0075,
        "meta_ephemeris_type": 0,
        "meta_classification_type": "U",
        "meta_norad_cat_id": 66994,
        "meta_element_set_no": 999,
        "meta_rev_at_epoch": 212,
        "meta_bstar": 0.00036226785,
        "meta_mean_motion_dot": 5.039e-05,
        "meta_mean_motion_ddot": 0,
        "tle_line1": "1 66994U 25292B   25358.24577507  .00005039  00000+0  36227-3 0  9993",
        "tle_line2": "2 66994  97.6509  70.6871 0014257 230.9883 129.0075 15.04625525  2127"
      },
      "geometry": {
        "type": "Point",
        "coordinates": [
          -110.09240604594838,
          -10.825192237369858
        ]
      }
    },
    {
      "type": "Feature",
      "properties": {
        "norad_id": 66995,
        "name": "2025-292C",
        "group": "last-30-days",
        "lat": -11.771907444082181,
        "lon": -110.2257945368268,
        "alt_km": 548.9523098459313,
        "timestamp": "2025-12-24T22:42:20.748150+00:00",
        "meta_object_name": "2025-292C",
        "meta_object_id": "2025-292C",
        "meta_epoch": "2025-12-24T05:53:40.904448",
        "meta_mean_motion": 15.0465654,
        "meta_eccentricity": 0.00145625,
        "meta_inclination": 97.65,
        "meta_ra_of_asc_node": 70.6858,
        "meta_arg_of_pericenter": 231.3832,
        "meta_mean_anomaly": 128.6091,
        "meta_ephemeris_type": 0,
        "meta_classification_type": "U",
        "meta_norad_cat_id": 66995,
        "meta_element_set_no": 999,
        "meta_rev_at_epoch": 212,
        "meta_bstar": 0.00040379165,
        "meta_mean_motion_dot": 5.629e-05,
        "meta_mean_motion_ddot": 0,
        "tle_line1": "1 66995U 25292C   25358.24561232  .00005629  00000+0  40379-3 0  9990",
        "tle_line2": "2 66995  97.6500  70.6858 0014562 231.3832 128.6091 15.04656540  2126"
      },
      "geometry": {
        "type": "Point",
        "coordinates": [
          -110.2257945368268,
          -11.771907444082181
        ]
      }
    },
    {
      "type": "Feature",
      "properties": {
        "norad_id": 66996,
        "name": "2025-292D",
        "group": "last-30-days",
        "lat": -13.707499394962557,
        "lon": -110.49936808284988,
        "alt_km": 549.6572104517354,
        "timestamp": "2025-12-24T22:42:20.748160+00:00",
        "meta_object_name": "2025-292D",
        "meta_object_id": "2025-292D",
        "meta_epoch": "2025-12-24T05:53:10.375008",
        "meta_mean_motion": 15.04670926,
        "meta_eccentricity": 0.00136875,
        "meta_inclination": 97.6495,
        "meta_ra_of_asc_node": 70.6854,
        "meta_arg_of_pericenter": 233.9135,
        "meta_mean_anomaly": 126.0824,
        "meta_ephemeris_type": 0,
        "meta_classification_type": "U",
        "meta_norad_cat_id": 66996,
        "meta_element_set_no": 999,
        "meta_rev_at_epoch": 212,
        "meta_bstar": 0.00028189027,
        "meta_mean_motion_dot": 3.911e-05,
        "meta_mean_motion_ddot": 0,
        "tle_line1": "1 66996U 25292D   25358.24525897  .00003911  00000+0  28189-3 0  9995",
        "tle_line2": "2 66996  97.6495  70.6854 0013687 233.9135 126.0824 15.04670926  2127"
      },
      "geometry": {
        "type": "Point",
        "coordinates": [
          -110.49936808284988,
          -13.707499394962557
        ]
      }
    }
  ]
}